{
  "type": "FeatureCollection",
  "features": [
    {
      "type": "Feature",
      "properties": {
        "norad_id": 43260,
        "name": "GAOFEN-1 03",
        "group": "resource",
        "lat": -64.11886495694687,
        "lon": -148.54217742802578,
        "alt_km": 647.1046775615241,
        "timestamp": "2025-12-16T19:34:23.922675+00:00",
        "meta_object_name": "GAOFEN-1 03",
        "meta_object_id": "2018-031B",
        "meta_epoch": "2025-12-16T00:34:26.117760",
        "meta_mean_motion": 14.76443626,
        "meta_eccentricity": 0.00018196,
        "meta_inclination": 98.0795,
        "meta_ra_of_asc_node": 47.691,
        "meta_arg_of_pericenter": 306.0436,
        "meta_mean_anomaly": 54.0604,
        "meta_ephemeris_type": 0,
        "meta_classification_type": "U",
        "meta_norad_cat_id": 43260,
        "meta_element_set_no": 999,
        "meta_rev_at_epoch": 41566,
        "meta_bstar": 0.00013346007,
        "meta_mean_motion_dot": 8.76e-06,
        "meta_mean_motion_ddot": 0,
        "tle_line1": "1 43260U 18031B   25350.02391340  .00000876  00000+0  13346-3 0  9995",
        "tle_line2": "2 43260  98.0795  47.6910 0001819 306.0436  54.0604 14.76443626415667"
      },
      "geometry": {
        "type": "Point",
        "coordinates": [
          -148.54217742802578,
          -64.11886495694687
        ]
      }
    },
    {
      "type": "Feature",
      "properties": {
        "norad_id": 43262,
        "name": "GAOFEN-1 04",
        "group": "resource",
        "lat": 14.604230544899858,
        "lon": 46.53122062393677,
        "alt_km": 640.9538425403307,
        "timestamp": "2025-12-16T19:34:23.922686+00:00",
        "meta_object_name": "GAOFEN-1 04",
        "meta_object_id": "2018-031D",
        "meta_epoch": "2025-12-15T23:59:19.608000",
        "meta_mean_motion": 14.76458623,
        "meta_eccentricity": 9.361e-05,
        "meta_inclination": 98.0808,
        "meta_ra_of_asc_node": 47.8364,
        "meta_arg_of_pericenter": 59.167,
        "meta_mean_anomaly": 300.9631,
        "meta_ephemeris_type": 0,
        "meta_classification_type": "U",
        "meta_norad_cat_id": 43262,
        "meta_element_set_no": 999,
        "meta_rev_at_epoch": 41565,
        "meta_bstar": 0.00016373224,
        "meta_mean_motion_dot": 1.087e-05,
        "meta_mean_motion_ddot": 0,
        "tle_line1": "1 43262U 18031D   25349.99953250  .00001087  00000+0  16373-3 0  9993",
        "tle_line2": "2 43262  98.0808  47.8364 0000936  59.1670 300.9631 14.76458623415659"
      },
      "geometry": {
        "type": "Point",
        "coordinates": [
          46.53122062393677,
          14.604230544899858
        ]
      }
    },
    {
      "type": "Feature",
      "properties": {
        "norad_id": 43437,
        "name": "SENTINEL-3B",
        "group": "resource",
        "lat": 6.652465430443158,
        "lon": -123.04309528085255,
        "alt_km": 804.4206528132618,
        "timestamp": "2025-12-16T19:34:23.922696+00:00",
        "meta_object_name": "SENTINEL-3B",
        "meta_object_id": "2018-039A",
        "meta_epoch": "2025-12-15T22:34:01.390368",
        "meta_mean_motion": 14.26735179,
        "meta_eccentricity": 0.0001629,
        "meta_inclination": 98.6266,
        "meta_ra_of_asc_node": 55.0798,
        "meta_arg_of_pericenter": 98.6146,
        "meta_mean_anomaly": 261.5219,
        "meta_ephemeris_type": 0,
        "meta_classification_type": "U",
        "meta_norad_cat_id": 43437,
        "meta_element_set_no": 999,
        "meta_rev_at_epoch": 39799,
        "meta_bstar": 7.1042753e-05,
        "meta_mean_motion_dot": 1.28e-06,
        "meta_mean_motion_ddot": 0,
        "tle_line1": "1 43437U 18039A   25349.94029387  .00000128  00000+0  71043-4 0  9996",
        "tle_line2": "2 43437  98.6266  55.0798 0001629  98.6146 261.5219 14.26735179397994"
      },
      "geometry": {
        "type": "Point",
        "coordinates": [
          -123.04309528085255,
          6.652465430443158
        ]
      }
    },
    {
      "type": "Feature",
      "properties": {
        "norad_id": 43461,
        "name": "GAOFEN-5 01",
        "group": "resource",
        "lat": -63.15004150872724,
        "lon": -29.105330955883385,
        "alt_km": 698.5512930810582,
        "timestamp": "2025-12-16T19:34:23.922707+00:00",
        "meta_object_name": "GAOFEN-5 01",
        "meta_object_id": "2018-043A",
        "meta_epoch": "2025-12-15T20:50:49.331328",
        "meta_mean_motion": 14.60413185,
        "meta_eccentricity": 7.485e-05,
        "meta_inclination": 98.4329,
        "meta_ra_of_asc_node": 312.8905,
        "meta_arg_of_pericenter": 326.6717,
        "meta_mean_anomaly": 33.4436,
        "meta_ephemeris_type": 0,
        "meta_classification_type": "U",
        "meta_norad_cat_id": 43461,
        "meta_element_set_no": 999,
        "meta_rev_at_epoch": 40493,
        "meta_bstar": 0.00010021275,
        "meta_mean_motion_dot": 4.36e-06,
        "meta_mean_motion_ddot": 0,
        "tle_line1": "1 43461U 18043A   25349.86862652  .00000436  00000+0  10021-3 0  9999",
        "tle_line2": "2 43461  98.4329 312.8905 0000748 326.6717  33.4436 14.60413185404930"
      },
      "geometry": {
        "type": "Point",
        "coordinates": [
          -29.105330955883385,
          -63.15004150872724
        ]
      }
    },
    {
      "type": "Feature",
      "properties": {
        "norad_id": 43484,
        "name": "GAOFEN-6",
        "group": "resource",
        "lat": 11.974931408889647,
        "lon": -123.38779927514697,
        "alt_km": 645.5542893930842,
        "timestamp": "2025-12-16T19:34:23.922717+00:00",
        "meta_object_name": "GAOFEN-6",
        "meta_object_id": "2018-048A",
        "meta_epoch": "2025-12-15T23:18:01.791648",
        "meta_mean_motion": 14.76574749,
        "meta_eccentricity": 0.00130763,
        "meta_inclination": 97.8031,
        "meta_ra_of_asc_node": 54.1292,
        "meta_arg_of_pericenter": 54.1321,
        "meta_mean_anomaly": 306.1102,
        "meta_ephemeris_type": 0,
        "meta_classification_type": "U",
        "meta_norad_cat_id": 43484,
        "meta_element_set_no": 999,
        "meta_rev_at_epoch": 40635,
        "meta_bstar": 0.00016714868,
        "meta_mean_motion_dot": 1.118e-05,
        "meta_mean_motion_ddot": 0,
        "tle_line1": "1 43484U 18048A   25349.97085407  .00001118  00000+0  16715-3 0  9990",
        "tle_line2": "2 43484  97.8031  54.1292 0013076  54.1321 306.1102 14.76574749406354"
      },
      "geometry": {
        "type": "Point",
        "coordinates": [
          -123.38779927514697,
          11.974931408889647
        ]
      }
    },
    {
      "type": "Feature",
      "properties": {
        "norad_id": 43585,
        "name": "GAOFEN-11 01",
        "group": "resource",
        "lat": -40.39186265709645,
        "lon": 59.85266811357425,
        "alt_km": 422.77523993176146,
        "timestamp": "2025-12-16T19:34:23.922728+00:00",
        "meta_object_name": "GAOFEN-11 01",
        "meta_object_id": "2018-063A",
        "meta_epoch": "2025-12-15T23:35:51.962784",
        "meta_mean_motion": 15.49312794,
        "meta_eccentricity": 0.00041386,
        "meta_inclination": 97.1564,
        "meta_ra_of_asc_node": 52.8903,
        "meta_arg_of_pericenter": 296.5942,
        "meta_mean_anomaly": 63.4885,
        "meta_ephemeris_type": 0,
        "meta_classification_type": "U",
        "meta_norad_cat_id": 43585,
        "meta_element_set_no": 999,
        "meta_rev_at_epoch": 41192,
        "meta_bstar": 0.00020171866,
        "meta_mean_motion_dot": 0.00010948,
        "meta_mean_motion_ddot": 0,
        "tle_line1": "1 43585U 18063A   25349.98324031  .00010948  00000+0  20172-3 0  9992",
        "tle_line2": "2 43585  97.1564  52.8903 0004138 296.5942  63.4885 15.49312794411925"
      },
      "geometry": {
        "type": "Point",
        "coordinates": [
          59.85266811357425,
          -40.39186265709645
        ]
      }
    },
    {
      "type": "Feature",
      "properties": {
        "norad_id": 43613,
        "name": "ICESAT-2",
        "group": "resource",
        "lat": 73.09941631654192,
        "lon": 68.45726443822603,
        "alt_km": 472.48471574117775,
        "timestamp": "2025-12-16T19:34:23.922738+00:00",
        "meta_object_name": "ICESAT-2",
        "meta_object_id": "2018-070A",
        "meta_epoch": "2025-12-15T21:06:23.675616",
        "meta_mean_motion": 15.28239046,
        "meta_eccentricity": 0.00025753,
        "meta_inclination": 92.0049,
        "meta_ra_of_asc_node": 241.584,
        "meta_arg_of_pericenter": 131.0432,
        "meta_mean_anomaly": 229.104,
        "meta_ephemeris_type": 0,
        "meta_classification_type": "U",
        "meta_norad_cat_id": 43613,
        "meta_element_set_no": 999,
        "meta_rev_at_epoch": 40446,
        "meta_bstar": 0.00029543951,
        "meta_mean_motion_dot": 8.127e-05,
        "meta_mean_motion_ddot": 0,
        "tle_line1": "1 43613U 18070A   25349.87944069  .00008127  00000+0  29544-3 0  9997",
        "tle_line2": "2 43613  92.0049 241.5840 0002575 131.0432 229.1040 15.28239046404466"
      },
      "geometry": {
        "type": "Point",
        "coordinates": [
          68.45726443822603,
          73.09941631654192
        ]
      }
    }
  ]
}